[{"OBJECT_NAME":"STARLINK-30091","OBJECT_ID":"2023-107G","EPOCH":"2026-03-09T02:58:36.288768","MEAN_MOTION":15.27580258,"ECCENTRICITY":0.00020649,"INCLINATION":42.9976,"RA_OF_ASC_NODE":339.0335,"ARG_OF_PERICENTER":272.7411,"MEAN_ANOMALY":87.3204,"EPHEMERIS_TYPE":0,"CLASSIFICATION_TYPE":"U","NORAD_CAT_ID":57463,"ELEMENT_SET_NO":999,"REV_AT_EPOCH":14506,"BSTAR":0.00012695736,"MEAN_MOTION_DOT":3.233e-5,"MEAN_MOTION_DDOT":0},{"OBJECT_NAME":"TROLL","OBJECT_ID":"2025-009BB","EPOCH":"2026-03-09T05:24:19.835712","MEAN_MOTION":15.28164315,"ECCENTRICITY":0.00018165,"INCLINATION":97.3932,"RA_OF_ASC_NODE":150.7169,"ARG_OF_PERICENTER":59.185,"MEAN_ANOMALY":300.9568,"EPHEMERIS_TYPE":0,"CLASSIFICATION_TYPE":"U","NORAD_CAT_ID":62658,"ELEMENT_SET_NO":999,"REV_AT_EPOCH":11817,"BSTAR":0.00048220305,"MEAN_MOTION_DOT":0.00013174,"MEAN_MOTION_DDOT":0}]
