STARLINK-30091          
1 57463U 23107G   26068.12403112  .00003233  00000+0  12696-3 0  9991
2 57463  42.9976 339.0335 0002064 272.7411  87.3204 15.27580258145069
TROLL                   
1 62658U 25009BB  26068.22522958  .00013174  00000+0  48220-3 0  9994
2 62658  97.3932 150.7169 0001816  59.1850 300.9568 15.28164315118170
